{
    "links": {
        "self": "http://www.neowsapp.com/rest/v1/neo/3836850?api_key=iIulBulltgU6a56xZRHN4H3l9WmuAYTsLGpBGhQ2"
    },
    "id": "3836850",
    "neo_reference_id": "3836850",
    "name": "(2018 XO2)",
    "designation": "2018 XO2",
    "nasa_jpl_url": "http://ssd.jpl.nasa.gov/sbdb.cgi?sstr=3836850",
    "absolute_magnitude_h": 22.9,
    "estimated_diameter": {
        "kilometers": {
            "estimated_diameter_min": 0.0699125232,
            "estimated_diameter_max": 0.1563291544
        },
        "meters": {
            "estimated_diameter_min": 69.9125232246,
            "estimated_diameter_max": 156.3291544087
        },
        "miles": {
            "estimated_diameter_min": 0.0434416145,
            "estimated_diameter_max": 0.097138403
        },
        "feet": {
            "estimated_diameter_min": 229.3718026961,
            "estimated_diameter_max": 512.8909429502
        }
    },
    "is_potentially_hazardous_asteroid": false,
    "close_approach_data": [
        {
            "close_approach_date": "2018-11-23",
            "close_approach_date_full": "2018-Nov-23 17:50",
            "epoch_date_close_approach": 1542995400000,
            "relative_velocity": {
                "kilometers_per_second": "20.1366803065",
                "kilometers_per_hour": "72492.0491034803",
                "miles_per_hour": "45043.7401776597"
            },
            "miss_distance": {
                "astronomical": "0.0786571754",
                "lunar": "30.5976412306",
                "kilometers": "11766945.900056398",
                "miles": "7311641.1369903724"
            },
            "orbiting_body": "Earth"
        }
    ],
    "orbital_data": {
        "orbit_id": "3",
        "orbit_determination_date": "2019-01-21 07:51:19",
        "first_observation_date": "2018-12-10",
        "last_observation_date": "2018-12-14",
        "data_arc_in_days": 4,
        "observations_used": 26,
        "orbit_uncertainty": "9",
        "minimum_orbit_intersection": ".0590547",
        "jupiter_tisserand_invariant": "3.204",
        "epoch_osculation": "2458463.5",
        "eccentricity": ".6695402196198291",
        "semi_major_axis": "2.316456087000102",
        "inclination": "14.96278123315626",
        "ascending_node_longitude": "69.56843860573694",
        "orbital_period": "1287.75882396875",
        "perihelion_distance": ".7654955697703638",
        "perihelion_argument": "281.0207041338764",
        "aphelion_distance": "3.86741660422984",
        "perihelion_time": "2458403.044203377508",
        "mean_anomaly": "16.90074754605235",
        "mean_motion": ".2795554519211247",
        "equinox": "J2000",
        "orbit_class": {
            "orbit_class_type": "APO",
            "orbit_class_description": "Near-Earth asteroid orbits which cross the Earth’s orbit similar to that of 1862 Apollo",
            "orbit_class_range": "a (semi-major axis) > 1.0 AU; q (perihelion) < 1.017 AU"
        }
    },
    "is_sentry_object": false
}